OBJECT_NAME,OBJECT_ID,EPOCH,MEAN_MOTION,ECCENTRICITY,INCLINATION,RA_OF_ASC_NODE,ARG_OF_PERICENTER,MEAN_ANOMALY,EPHEMERIS_TYPE,CLASSIFICATION_TYPE,NORAD_CAT_ID,ELEMENT_SET_NO,REV_AT_EPOCH,BSTAR,MEAN_MOTION_DOT,MEAN_MOTION_DDOT
STARLINK-32311,2024-222A,2026-06-05T06:02:47.963328,15.27602550,.0000768,43.0022,346.6986,271.7418,88.3346,0,U,62114,999,8647,.64987E-3,.17676E-3,0
STARLINK-32470,2024-222B,2026-06-05T06:13:09.994080,15.27602291,.0001522,42.9986,1.4658,286.8971,73.1714,0,U,62115,999,8629,.71569E-3,.19498E-3,0
STARLINK-32502,2024-222C,2026-06-06T00:00:19.420992,15.27628201,.00009918,42.9998,357.5630,260.5630,99.5110,0,U,62116,999,8631,.93847536E-3,.25691E-3,0
STARLINK-32521,2024-222D,2026-06-02T15:38:40.768800,15.27604575,.00011632,43.0015,12.7183,249.4152,110.6575,0,U,62117,999,8578,.66260546E-3,.1803E-3,0
STARLINK-32549,2024-222E,2026-06-02T21:23:10.589856,15.27620659,.0001745,43.0006,14.6523,265.2753,94.7899,0,U,62118,999,8584,.10433E-2,.28594E-3,0
STARLINK-32535,2024-222F,2026-06-05T06:56:26.860992,15.27550013,.00022783,43.0034,358.2341,267.8119,92.2472,0,U,62119,999,8619,.80699353E-3,.21991E-3,0
STARLINK-32548,2024-222G,2026-06-05T07:04:58.768896,15.27589512,.00018264,43.0031,1.7319,261.8754,98.1890,0,U,62120,999,8615,.6360844E-3,.17288E-3,0
STARLINK-32525,2024-222H,2026-06-02T21:32:27.636576,15.27596124,.0001114,42.9992,14.6996,323.5080,36.5695,0,U,62121,999,8579,.10195E-2,.27913E-3,0
STARLINK-32628,2024-222J,2026-06-03T13:39:53.654400,15.27582641,.0002218,43.0041,11.1402,243.5167,116.5457,0,U,62122,999,8605,.65414E-3,.17783E-3,0
STARLINK-32626,2024-222K,2026-06-05T06:55:43.383648,15.27594533,.00012453,43.0037,1.6815,261.1649,98.9061,0,U,62123,999,8614,.56565658E-3,.15343E-3,0
STARLINK-32608,2024-222L,2026-06-05T23:34:26.145120,15.27596185,.00016765,42.9962,357.4390,249.9075,110.1596,0,U,62124,999,8624,.85841093E-3,.23447E-3,0
STARLINK-32488,2024-222M,2026-06-05T22:52:05.395872,15.27607885,.00017451,43.0032,358.0703,263.1359,96.9294,0,U,62125,999,8614,.11945713E-2,.32784E-3,0
STARLINK-32490,2024-222N,2026-06-03T19:25:03.804384,15.27623406,.00017026,42.9992,9.4976,272.4820,87.5836,0,U,62126,999,8592,.78105112E-3,.21322E-3,0
STARLINK-32557,2024-222P,2026-06-01T22:22:29.797248,15.27587772,.00013553,43.0009,9.8183,205.1898,154.8887,0,U,62127,999,8580,.72513444E-3,.1975E-3,0
STARLINK-32568,2024-222Q,2026-06-06T00:05:53.609280,15.27613135,.00011264,43.0026,357.5926,283.4453,76.6273,0,U,62128,999,8599,.12916778E-2,.35489E-3,0
STARLINK-32462,2024-222R,2026-06-05T22:28:43.924800,15.27615381,.00015603,43.0035,354.4902,265.8818,94.1855,0,U,62129,999,8628,.9168238E-3,.2508E-3,0
STARLINK-32463,2024-222S,2026-06-05T17:06:43.592256,15.27579697,.00001164,42.9956,358.8571,92.8284,267.2581,0,U,62130,999,8621,.91693867E-3,.25056E-3,0
STARLINK-32550,2024-222T,2026-06-03T18:53:49.401312,15.27612341,.00015268,43.0044,10.1926,274.7417,85.3261,0,U,62131,999,8596,.70541098E-3,.19219E-3,0
STARLINK-32507,2024-222U,2026-06-05T16:46:21.128160,15.27587252,.00014277,43.0008,358.7389,271.6871,88.3817,0,U,62132,999,8606,.91779254E-3,.25085E-3,0
STARLINK-32245,2024-222V,2026-06-05T06:39:03.751200,15.27604846,.0001363,43.0017,1.5906,276.3606,83.7090,0,U,62133,999,8630,.60955E-3,.16562E-3,0
STARLINK-32546,2024-222W,2026-06-05T16:17:39.938208,15.27582612,.00015748,43.0035,355.9938,268.0496,92.0176,0,U,62134,999,8613,.70435936E-3,.19172E-3,0
STARLINK-32545,2024-222X,2026-06-06T00:31:47.708544,15.27613360,.00015201,43.0026,357.7263,268.4759,91.5919,0,U,62135,999,8630,.14666232E-2,.40359E-3,0
STARLINK-32554,2024-222Y,2026-06-01T22:22:18.331104,15.27594177,.00022927,43.0010,20.3494,15.8691,344.2232,0,U,62136,999,8568,.79895874E-3,.21798E-3,0
STARLINK-32570,2024-222Z,2026-06-04T16:26:07.721376,15.27642127,.00012727,43.0015,4.8851,264.3231,95.7476,0,U,62137,999,8620,.94386993E-3,.25851E-3,0
KONDOR-FKA NO. 2,2024-223A,2026-06-06T07:33:03.051360,15.19687256,.00017319,97.4430,0.9100,105.0959,255.0468,0,U,62138,999,8405,.22826546E-3,.4804E-4,0
STARLINK-32529,2024-224A,2026-06-05T08:20:27.786048,15.27587781,.00013544,43.0035,23.3018,275.7940,84.2757,0,U,62139,999,8582,.62127862E-3,.16877E-3,0
STARLINK-32464,2024-224B,2026-06-04T21:32:27.953664,15.27590770,.0001499,43.0045,25.9220,268.5972,91.4708,0,U,62140,999,8575,.67961E-3,.18492E-3,0
STARLINK-32482,2024-224C,2026-06-05T07:36:02.633760,15.27589247,.00014445,42.9994,23.0458,273.7824,86.2862,0,U,62141,999,8572,.53262828E-3,.14428E-3,0
STARLINK-32454,2024-224D,2026-06-05T09:03:26.576352,15.27618364,.00023376,43.0058,30.4220,272.2905,87.7679,0,U,62142,999,8580,.68069675E-3,.18539E-3,0
STARLINK-32485,2024-224E,2026-06-04T17:18:40.845312,15.27687975,.00032668,43.0026,29.7751,250.1936,109.8564,0,U,62143,999,8532,.11956171E-2,.32897E-3,0
