STARLINK-32311          
1 62114U 24222A   26156.25194402  .00017676  00000+0  64987-3 0  9996
2 62114  43.0022 346.6986 0000768 271.7418  88.3346 15.27602550 86470
STARLINK-32470          
1 62115U 24222B   26156.25914345  .00019498  00000+0  71569-3 0  9991
2 62115  42.9986   1.4658 0001522 286.8971  73.1714 15.27602291 86293
STARLINK-32502          
1 62116U 24222C   26157.00022478  .00025691  00000+0  93848-3 0  9999
2 62116  42.9998 357.5630 0000991 260.5630  99.5110 15.27628201 86316
STARLINK-32521          
1 62117U 24222D   26153.65186075  .00018030  00000+0  66261-3 0  9999
2 62117  43.0015  12.7183 0001163 249.4152 110.6575 15.27604575 85787
STARLINK-32549          
1 62118U 24222E   26153.89109479  .00028594  00000+0  10433-2 0  9994
2 62118  43.0006  14.6523 0001745 265.2753  94.7899 15.27620659 85845
STARLINK-32535          
1 62119U 24222F   26156.28919978  .00021991  00000+0  80699-3 0  9990
2 62119  43.0034 358.2341 0002278 267.8119  92.2472 15.27550013 86193
STARLINK-32548          
1 62120U 24222G   26156.29512464  .00017288  00000+0  63608-3 0  9997
2 62120  43.0031   1.7319 0001826 261.8754  98.1890 15.27589512 86155
STARLINK-32525          
1 62121U 24222H   26153.89754209  .00027913  00000+0  10195-2 0  9994
2 62121  42.9992  14.6996 0001114 323.5080  36.5695 15.27596124 85797
STARLINK-32628          
1 62122U 24222J   26154.56937100  .00017783  00000+0  65414-3 0  9992
2 62122  43.0041  11.1402 0002218 243.5167 116.5457 15.27582641 86056
STARLINK-32626          
1 62123U 24222K   26156.28869657  .00015343  00000+0  56566-3 0  9993
2 62123  43.0037   1.6815 0001245 261.1649  98.9061 15.27594533 86141
STARLINK-32608          
1 62124U 24222L   26156.98224705  .00023447  00000+0  85841-3 0  9992
2 62124  42.9962 357.4390 0001676 249.9075 110.1596 15.27596185 86248
STARLINK-32488          
1 62125U 24222M   26156.95284023  .00032784  00000+0  11946-2 0  9997
2 62125  43.0032 358.0703 0001745 263.1359  96.9294 15.27607885 86149
STARLINK-32490          
1 62126U 24222N   26154.80907181  .00021322  00000+0  78105-3 0  9994
2 62126  42.9992   9.4976 0001702 272.4820  87.5836 15.27623406 85921
STARLINK-32557          
1 62127U 24222P   26152.93228932  .00019750  00000+0  72513-3 0  9996
2 62127  43.0009   9.8183 0001355 205.1898 154.8887 15.27587772 85805
STARLINK-32568          
1 62128U 24222Q   26157.00409270  .00035489  00000+0  12917-2 0  9994
2 62128  43.0026 357.5926 0001126 283.4453  76.6273 15.27613135 85998
STARLINK-32462          
1 62129U 24222R   26156.93661950  .00025080  00000+0  91682-3 0  9994
2 62129  43.0035 354.4902 0001560 265.8818  94.1855 15.27615381 86289
STARLINK-32463          
1 62130U 24222S   26156.71300454  .00025056  00000+0  91694-3 0  9997
2 62130  42.9956 358.8571 0000116  92.8284 267.2581 15.27579697 86213
STARLINK-32550          
1 62131U 24222T   26154.78737733  .00019219  00000+0  70541-3 0  9999
2 62131  43.0044  10.1926 0001526 274.7417  85.3261 15.27612341 85960
STARLINK-32507          
1 62132U 24222U   26156.69885565  .00025085  00000+0  91779-3 0  9993
2 62132  43.0008 358.7389 0001427 271.6871  88.3817 15.27587252 86069
STARLINK-32245          
1 62133U 24222V   26156.27712675  .00016562  00000+0  60955-3 0  9991
2 62133  43.0017   1.5906 0001363 276.3606  83.7090 15.27604846 86303
STARLINK-32546          
1 62134U 24222W   26156.67893447  .00019172  00000+0  70436-3 0  9998
2 62134  43.0035 355.9938 0001574 268.0496  92.0176 15.27582612 86139
STARLINK-32545          
1 62135U 24222X   26157.02207996  .00040359  00000+0  14666-2 0  9990
2 62135  43.0026 357.7263 0001520 268.4759  91.5919 15.27613360 86301
STARLINK-32554          
1 62136U 24222Y   26152.93215661  .00021798  00000+0  79896-3 0  9997
2 62136  43.0010  20.3494 0002292  15.8691 344.2232 15.27594177 85680
STARLINK-32570          
1 62137U 24222Z   26155.68481159  .00025851  00000+0  94387-3 0  9996
2 62137  43.0015   4.8851 0001272 264.3231  95.7476 15.27642127 86204
KONDOR-FKA NO. 2        
1 62138U 24223A   26157.31461865  .00004804  00000+0  22827-3 0  9997
2 62138  97.4430   0.9100 0001731 105.0959 255.0468 15.19687256 84057
STARLINK-32529          
1 62139U 24224A   26156.34754382  .00016877  00000+0  62128-3 0  9991
2 62139  43.0035  23.3018 0001354 275.7940  84.2757 15.27587781 85829
STARLINK-32464          
1 62140U 24224B   26155.89754576  .00018492  00000+0  67961-3 0  9992
2 62140  43.0045  25.9220 0001499 268.5972  91.4708 15.27590770 85750
STARLINK-32482          
1 62141U 24224C   26156.31669715  .00014428  00000+0  53263-3 0  9996
2 62141  42.9994  23.0458 0001444 273.7824  86.2862 15.27589247 85725
STARLINK-32454          
1 62142U 24224D   26156.37739093  .00018539  00000+0  68070-3 0  9999
2 62142  43.0058  30.4220 0002337 272.2905  87.7679 15.27618364 85808
STARLINK-32485          
1 62143U 24224E   26155.72130608  .00032897  00000+0  11956-2 0  9998
2 62143  43.0026  29.7751 0003266 250.1936 109.8564 15.27687975 85325
